H1 CPF 01  gfz 2021 07 07 00  6881 tandemx   
H2 1003001  6202 36605    2021 07 07 00 59 42 2021 07 12 00 00 42   120 1 1  0 0 0
H9
10 0 59406  55422.000000  0    2304918.499    806378.994   6430444.347
10 0 59406  55542.000000  0    1648123.156    209201.882   6674300.571
10 0 59406  55662.000000  0     952190.921   -379789.834   6800864.787
10 0 59406  55782.000000  0     229506.164   -949741.816   6807929.047
10 0 59406  55902.000000  0    -506899.110  -1490355.254   6695372.017
10 0 59406  56022.000000  0   -1243580.137  -1992072.794   6465160.228
10 0 59406  56142.000000  0   -1966923.577  -2446247.323   6121314.174
10 0 59406  56262.000000  0   -2663396.671  -2845290.866   5669843.274
10 0 59406  56382.000000  0   -3319801.948  -3182804.592   5118649.534
10 0 59406  56502.000000  0   -3923532.577  -3453685.166   4477394.405
10 0 59406  56622.000000  0   -4462818.817  -3654204.286   3757332.860
10 0 59406  56742.000000  0   -4926962.484  -3782060.888   2971118.877
10 0 59406  56862.000000  0   -5306555.246  -3836405.220   2132584.657
10 0 59406  56982.000000  0   -5593675.789  -3817833.957   1256494.519
10 0 59406  57102.000000  0   -5782058.766  -3728354.440    358278.941
10 0 59406  57222.000000  0   -5867232.183  -3571319.683   -546244.706
10 0 59406  57342.000000  0   -5846619.507  -3351336.085  -1441159.928
10 0 59406  57462.000000  0   -5719602.290  -3074144.859  -2310741.246
10 0 59406  57582.000000  0   -5487542.164  -2746481.247  -3139737.109
10 0 59406  57702.000000  0   -5153763.878  -2375916.357  -3913641.227
10 0 59406  57822.000000  0   -4723499.696  -1970685.002  -4618946.581
10 0 59406  57942.000000  0   -4203797.626  -1539504.735  -5243377.970
10 0 59406  58062.000000  0   -3603395.677  -1091389.693  -5776099.363
10 0 59406  58182.000000  0   -2932565.827   -635463.665  -6207892.016
10 0 59406  58302.000000  0   -2202932.185   -180776.887  -6531302.551
10 0 59406  58422.000000  0   -1427266.109    263869.758  -6740760.009
10 0 59406  58542.000000  0    -619263.430    690089.878  -6832660.633
10 0 59406  58662.000000  0     206692.580   1090065.482  -6805422.979
10 0 59406  58782.000000  0    1035780.078   1456685.967  -6659512.082
10 0 59406  58902.000000  0    1852998.470   1783671.566  -6397435.086
10 0 59406  59022.000000  0    2643434.569   2065680.041  -6023702.712
10 0 59406  59142.000000  0    3392530.939   2298393.566  -5544759.231
10 0 59406  59262.000000  0    4086351.040   2478585.049  -4968881.697
10 0 59406  59382.000000  0    4711840.379   2604163.702  -4306049.295
10 0 59406  59502.000000  0    5257077.495   2674197.968  -3567780.428
10 0 59406  59622.000000  0    5711507.847   2688915.000  -2766940.845
10 0 59406  59742.000000  0    6066158.208   2649677.077  -1917526.149
10 0 59406  59862.000000  0    6313824.441   2558933.930  -1034417.628
10 0 59406  59982.000000  0    6449226.482   2420151.888   -133119.520
10 0 59406  60102.000000  0    6469127.311   2237721.168    770519.762
10 0 59406  60222.000000  0    6372409.782   2016842.955   1660593.054
10 0 59406  60342.000000  0    6160114.531   1763401.565   2521422.527
10 0 59406  60462.000000  0    5835432.406   1483821.527   3337845.640
10 0 59406  60582.000000  0    5403653.314   1184915.111   4095489.579
10 0 59406  60702.000000  0    4872071.945    873723.911   4781029.007
10 0 59406  60822.000000  0    4249856.099    557359.454   5382421.103
10 0 59406  60942.000000  0    3547879.017    242845.041   5889116.873
10 0 59406  61062.000000  0    2778518.988    -63036.352   6292241.552
10 0 59406  61182.000000  0    1955434.771   -353883.959   6584743.219
10 0 59406  61302.000000  0    1093319.321   -623810.018   6761511.119
10 0 59406  61422.000000  0     207634.111   -867557.282   6819460.513
10 0 59406  61542.000000  0    -685669.256  -1080600.117   6757581.907
10 0 59406  61662.000000  0   -1570435.590  -1259228.447   6576956.722
10 0 59406  61782.000000  0   -2430596.850  -1400612.264   6280738.482
10 0 59406  61902.000000  0   -3250461.937  -1502845.634   5874101.713
10 0 59406  62022.000000  0   -4015005.212  -1564971.190   5364159.521
10 0 59406  62142.000000  0   -4710147.280  -1586984.896   4759845.060
10 0 59406  62262.000000  0   -5323021.313  -1569819.348   4071759.829
10 0 59406  62382.000000  0   -5842218.972  -1515305.757   3311990.388
10 0 59406  62502.000000  0   -6258010.827  -1426115.666   2493898.082
10 0 59406  62622.000000  0   -6562539.039  -1305684.576   1631884.524
10 0 59406  62742.000000  0   -6749975.832  -1158118.254    741132.611
10 0 59406  62862.000000  0   -6816640.130   -988083.434   -162668.690
10 0 59406  62982.000000  0   -6761071.560   -800686.264  -1063609.425
10 0 59406  63102.000000  0   -6584059.343   -601341.647  -1945847.855
10 0 59406  63222.000000  0   -6288625.828   -395637.063  -2793895.812
10 0 59406  63342.000000  0   -5879967.326   -189195.115  -3592896.553
10 0 59406  63462.000000  0   -5365350.400     12463.768  -4328888.453
10 0 59406  63582.000000  0   -4753968.922    204053.753  -4989046.975
10 0 59406  63702.000000  0   -4056767.452    380648.235  -5561902.626
10 0 59406  63822.000000  0   -3286234.135    537793.183  -6037531.792
10 0 59406  63942.000000  0   -2456168.807    671607.076  -6407716.663
10 0 59406  64062.000000  0   -1581433.188    778866.297  -6666075.255
10 0 59406  64182.000000  0    -677684.827    857074.680  -6808161.111
10 0 59406  64302.000000  0     238898.850    904516.115  -6831529.995
10 0 59406  64422.000000  0    1151901.762    920288.957  -6735777.686
10 0 59406  64542.000000  0    2044956.678    904322.465  -6522548.889
10 0 59406  64662.000000  0    2902032.927    857375.174  -6195511.928
10 0 59406  64782.000000  0    3707719.751    781015.000  -5760301.699
10 0 59406  64902.000000  0    4447500.472    677580.596  -5224431.999
10 0 59406  65022.000000  0    5108015.628    550125.259  -4597177.780
10 0 59406  65142.000000  0    5677310.528    402344.304  -3889425.679
10 0 59406  65262.000000  0    6145060.275    238486.263  -3113494.248
10 0 59406  65382.000000  0    6502768.301     63250.284  -2282927.185
10 0 59406  65502.000000  0    6743934.621   -118328.776  -1412260.380
10 0 59406  65622.000000  0    6864186.096   -301004.596   -516766.029
10 0 59406  65742.000000  0    6861365.820   -479449.673    387819.052
10 0 59406  65862.000000  0    6735579.835   -648389.428   1285576.757
10 0 59406  65982.000000  0    6489198.024   -802736.016   2160696.310
10 0 59406  66102.000000  0    6126809.358   -937718.380   2997762.776
10 0 59406  66222.000000  0    5655130.404  -1049004.994   3782036.375
10 0 59406  66342.000000  0    5082874.020  -1132816.281   4499717.043
10 0 59406  66462.000000  0    4420578.706  -1186024.879   5138190.587
10 0 59406  66582.000000  0    3680404.139  -1206239.067   5686249.804
10 0 59406  66702.000000  0    2875898.694  -1191869.084   6134288.407
10 0 59406  66822.000000  0    2021743.730  -1142175.639   6474464.012
10 0 59406  66942.000000  0    1133480.969  -1057299.245   6700830.120
10 0 59406  67062.000000  0     227225.608   -938269.387   6809434.656
10 0 59406  67182.000000  0    -680627.253   -786993.403   6798383.385
10 0 59406  67302.000000  0   -1573698.126   -606226.119   6667869.869
10 0 59406  67422.000000  0   -2435917.150   -399519.821   6420172.061
10 0 59406  67542.000000  0   -3251812.086   -171155.595   6059615.708
10 0 59406  67662.000000  0   -4006787.455     73942.957   5592504.585
10 0 59406  67782.000000  0   -4687390.154    330312.181   5027016.489
10 0 59406  67902.000000  0   -5281555.778    592065.058   4373065.704
10 0 59406  68022.000000  0   -5778831.124    853020.371   3642133.374
10 0 59406  68142.000000  0   -6170566.814   1106841.663   2847068.418
10 0 59406  68262.000000  0   -6450077.547   1347182.964   2001861.987
10 0 59406  68382.000000  0   -6612764.996   1567837.352   1121398.428
10 0 59406  68502.000000  0   -6656200.618   1762885.470    221187.051
10 0 59406  68622.000000  0   -6580163.671   1926839.716   -682919.957
10 0 59406  68742.000000  0   -6386634.153   2054779.678  -1575015.617
10 0 59406  68862.000000  0   -6079742.274   2142476.380  -2439425.960
10 0 59406  68982.000000  0   -5665675.011   2186502.416  -3260993.118
10 0 59406  69102.000000  0   -5152541.155   2184324.069  -4025345.725
10 0 59406  69222.000000  0   -4550200.736   2134373.358  -4719150.088
10 0 59406  69342.000000  0   -3870064.058   2036099.353  -5330338.371
10 0 59406  69462.000000  0   -3124866.117   1889998.122  -5848310.006
10 0 59406  69582.000000  0   -2328422.481   1697621.045  -6264105.492
10 0 59406  69702.000000  0   -1495369.241   1461561.319  -6570550.902
10 0 59406  69822.000000  0    -640893.738   1185419.066  -6762369.092
10 0 59406  69942.000000  0     219537.935    873746.197  -6836260.331
10 0 59406  70062.000000  0    1070453.237    531972.822  -6790953.009
10 0 59406  70182.000000  0    1896645.543    166314.613  -6627225.357
10 0 59406  70302.000000  0    2683440.059   -216337.531  -6347892.604
10 0 59406  70422.000000  0    3416949.803   -608543.127  -5957764.390
10 0 59406  70542.000000  0    4084318.256  -1002452.172  -5463569.376
10 0 59406  70662.000000  0    4673945.095  -1389957.169  -4873851.013
10 0 59406  70782.000000  0    5175693.445  -1762856.390  -4198831.709
10 0 59406  70902.000000  0    5581072.222  -2113023.724  -3450246.018
10 0 59406  71022.000000  0    5883390.375  -2432582.158  -2641144.797
10 0 59406  71142.000000  0    6077878.570  -2714077.333  -1785672.107
10 0 59406  71262.000000  0    6161774.362  -2950646.620   -898818.917
10 0 59406  71382.000000  0    6134369.191  -3136179.722      3841.856
10 0 59406  71502.000000  0    5997014.543  -3265466.650    906434.343
10 0 59406  71622.000000  0    5753087.737  -3334329.256   1793067.059
10 0 59406  71742.000000  0    5407914.514  -3339731.681   2648123.095
10 0 59406  71862.000000  0    4968652.339  -3279867.445   3456542.989
99
